[{"OBJECT_NAME":"STARLINK-34330","OBJECT_ID":"2025-117AA","EPOCH":"2025-12-01T18:21:23.022720","MEAN_MOTION":15.30202288,"ECCENTRICITY":0.0001058,"INCLINATION":53.1593,"RA_OF_ASC_NODE":134.4046,"ARG_OF_PERICENTER":87.0592,"MEAN_ANOMALY":273.053,"EPHEMERIS_TYPE":0,"CLASSIFICATION_TYPE":"U","NORAD_CAT_ID":64227,"ELEMENT_SET_NO":999,"REV_AT_EPOCH":2953,"BSTAR":0.00074323,"MEAN_MOTION_DOT":0.00021719,"MEAN_MOTION_DDOT":0},{"OBJECT_NAME":"STARLINK-34167","OBJECT_ID":"2025-117AB","EPOCH":"2025-12-01T17:43:23.649888","MEAN_MOTION":15.30209092,"ECCENTRICITY":0.000104,"INCLINATION":53.1573,"RA_OF_ASC_NODE":134.2369,"ARG_OF_PERICENTER":80.8299,"MEAN_ANOMALY":279.2819,"EPHEMERIS_TYPE":0,"CLASSIFICATION_TYPE":"U","NORAD_CAT_ID":64228,"ELEMENT_SET_NO":999,"REV_AT_EPOCH":2956,"BSTAR":0.00079065,"MEAN_MOTION_DOT":0.00023137,"MEAN_MOTION_DDOT":0},{"OBJECT_NAME":"STARLINK-34241","OBJECT_ID":"2025-117AC","EPOCH":"2025-12-01T17:26:53.257056","MEAN_MOTION":15.30195359,"ECCENTRICITY":0.0001151,"INCLINATION":53.158,"RA_OF_ASC_NODE":134.9433,"ARG_OF_PERICENTER":74.9824,"MEAN_ANOMALY":285.1304,"EPHEMERIS_TYPE":0,"CLASSIFICATION_TYPE":"U","NORAD_CAT_ID":64229,"ELEMENT_SET_NO":999,"REV_AT_EPOCH":2955,"BSTAR":0.00090249,"MEAN_MOTION_DOT":0.00026461,"MEAN_MOTION_DDOT":0},{"OBJECT_NAME":"STARLINK-11686 [DTC]","OBJECT_ID":"2025-119A","EPOCH":"2025-12-01T14:17:13.417152","MEAN_MOTION":15.70913866,"ECCENTRICITY":6.0e-5,"INCLINATION":42.9985,"RA_OF_ASC_NODE":80.6975,"ARG_OF_PERICENTER":185.8417,"MEAN_ANOMALY":174.2444,"EPHEMERIS_TYPE":0,"CLASSIFICATION_TYPE":"U","NORAD_CAT_ID":64233,"ELEMENT_SET_NO":999,"REV_AT_EPOCH":2981,"BSTAR":0.0021227,"MEAN_MOTION_DOT":0.00282264,"MEAN_MOTION_DDOT":0},{"OBJECT_NAME":"STARLINK-11682 [DTC]","OBJECT_ID":"2025-119B","EPOCH":"2025-12-01T08:32:36.813696","MEAN_MOTION":15.70855236,"ECCENTRICITY":0.0003875,"INCLINATION":42.9986,"RA_OF_ASC_NODE":82.3511,"ARG_OF_PERICENTER":288.0899,"MEAN_ANOMALY":71.9546,"EPHEMERIS_TYPE":0,"CLASSIFICATION_TYPE":"U","NORAD_CAT_ID":64234,"ELEMENT_SET_NO":999,"REV_AT_EPOCH":2977,"BSTAR":0.0021013,"MEAN_MOTION_DOT":0.00278641,"MEAN_MOTION_DDOT":0},{"OBJECT_NAME":"STARLINK-11675 [DTC]","OBJECT_ID":"2025-119C","EPOCH":"2025-12-01T13:52:58.652832","MEAN_MOTION":15.70888876,"ECCENTRICITY":8.46e-5,"INCLINATION":43.0003,"RA_OF_ASC_NODE":80.5618,"ARG_OF_PERICENTER":213.0232,"MEAN_ANOMALY":147.0583,"EPHEMERIS_TYPE":0,"CLASSIFICATION_TYPE":"U","NORAD_CAT_ID":64235,"ELEMENT_SET_NO":999,"REV_AT_EPOCH":2981,"BSTAR":0.0017671,"MEAN_MOTION_DOT":0.00233251,"MEAN_MOTION_DDOT":0},{"OBJECT_NAME":"STARLINK-11691 [DTC]","OBJECT_ID":"2025-119D","EPOCH":"2025-12-01T15:01:36.270336","MEAN_MOTION":15.70897252,"ECCENTRICITY":0.0002911,"INCLINATION":42.998,"RA_OF_ASC_NODE":80.0492,"ARG_OF_PERICENTER":307.0066,"MEAN_ANOMALY":53.0535,"EPHEMERIS_TYPE":0,"CLASSIFICATION_TYPE":"U","NORAD_CAT_ID":64236,"ELEMENT_SET_NO":999,"REV_AT_EPOCH":2982,"BSTAR":0.0018566,"MEAN_MOTION_DOT":0.00245552,"MEAN_MOTION_DDOT":0},{"OBJECT_NAME":"STARLINK-11670 [DTC]","OBJECT_ID":"2025-119E","EPOCH":"2025-12-01T14:15:54.786240","MEAN_MOTION":15.7115121,"ECCENTRICITY":0.0002771,"INCLINATION":43.0013,"RA_OF_ASC_NODE":80.6894,"ARG_OF_PERICENTER":253.6127,"MEAN_ANOMALY":106.4436,"EPHEMERIS_TYPE":0,"CLASSIFICATION_TYPE":"U","NORAD_CAT_ID":64237,"ELEMENT_SET_NO":999,"REV_AT_EPOCH":2981,"BSTAR":0.0028849,"MEAN_MOTION_DOT":0.00392869,"MEAN_MOTION_DDOT":0},{"OBJECT_NAME":"STARLINK-11708 [DTC]","OBJECT_ID":"2025-119F","EPOCH":"2025-12-01T14:23:33.571104","MEAN_MOTION":15.70880836,"ECCENTRICITY":0.0001771,"INCLINATION":43.0027,"RA_OF_ASC_NODE":80.7317,"ARG_OF_PERICENTER":265.6756,"MEAN_ANOMALY":94.3909,"EPHEMERIS_TYPE":0,"CLASSIFICATION_TYPE":"U","NORAD_CAT_ID":64238,"ELEMENT_SET_NO":999,"REV_AT_EPOCH":2981,"BSTAR":0.0016973,"MEAN_MOTION_DOT":0.00223689,"MEAN_MOTION_DDOT":0},{"OBJECT_NAME":"STARLINK-11683 [DTC]","OBJECT_ID":"2025-119G","EPOCH":"2025-12-01T08:40:04.456416","MEAN_MOTION":15.70840122,"ECCENTRICITY":0.0003267,"INCLINATION":42.9985,"RA_OF_ASC_NODE":81.4959,"ARG_OF_PERICENTER":293.8636,"MEAN_ANOMALY":66.1889,"EPHEMERIS_TYPE":0,"CLASSIFICATION_TYPE":"U","NORAD_CAT_ID":64239,"ELEMENT_SET_NO":999,"REV_AT_EPOCH":2978,"BSTAR":0.0020989,"MEAN_MOTION_DOT":0.00278098,"MEAN_MOTION_DDOT":0},{"OBJECT_NAME":"STARLINK-11684 [DTC]","OBJECT_ID":"2025-119H","EPOCH":"2025-12-01T14:00:37.339200","MEAN_MOTION":15.70870377,"ECCENTRICITY":0.0001293,"INCLINATION":42.999,"RA_OF_ASC_NODE":80.6015,"ARG_OF_PERICENTER":255.7433,"MEAN_ANOMALY":104.3291,"EPHEMERIS_TYPE":0,"CLASSIFICATION_TYPE":"U","NORAD_CAT_ID":64240,"ELEMENT_SET_NO":999,"REV_AT_EPOCH":2981,"BSTAR":0.0017243,"MEAN_MOTION_DOT":0.0022725,"MEAN_MOTION_DDOT":0},{"OBJECT_NAME":"STARLINK-11689 [DTC]","OBJECT_ID":"2025-119J","EPOCH":"2025-12-01T13:45:19.755648","MEAN_MOTION":15.70887422,"ECCENTRICITY":0.0002588,"INCLINATION":43.0032,"RA_OF_ASC_NODE":80.5187,"ARG_OF_PERICENTER":267.0827,"MEAN_ANOMALY":92.9745,"EPHEMERIS_TYPE":0,"CLASSIFICATION_TYPE":"U","NORAD_CAT_ID":64241,"ELEMENT_SET_NO":999,"REV_AT_EPOCH":2981,"BSTAR":0.0010668,"MEAN_MOTION_DOT":0.00139031,"MEAN_MOTION_DDOT":0},{"OBJECT_NAME":"STARLINK-11690 [DTC]","OBJECT_ID":"2025-119K","EPOCH":"2025-12-01T15:09:14.783040","MEAN_MOTION":15.709086,"ECCENTRICITY":0.000234,"INCLINATION":43.0004,"RA_OF_ASC_NODE":80.091,"ARG_OF_PERICENTER":298.2556,"MEAN_ANOMALY":61.8076,"EPHEMERIS_TYPE":0,"CLASSIFICATION_TYPE":"U","NORAD_CAT_ID":64242,"ELEMENT_SET_NO":999,"REV_AT_EPOCH":2982,"BSTAR":0.0018295,"MEAN_MOTION_DOT":0.00241971,"MEAN_MOTION_DDOT":0},{"OBJECT_NAME":"STARLINK-11694 [DTC]","OBJECT_ID":"2025-119L","EPOCH":"2025-12-01T06:53:24.539712","MEAN_MOTION":15.71033141,"ECCENTRICITY":0.0001979,"INCLINATION":42.9998,"RA_OF_ASC_NODE":82.6888,"ARG_OF_PERICENTER":245.181,"MEAN_ANOMALY":114.8852,"EPHEMERIS_TYPE":0,"CLASSIFICATION_TYPE":"U","NORAD_CAT_ID":64243,"ELEMENT_SET_NO":999,"REV_AT_EPOCH":2976,"BSTAR":0.0025868,"MEAN_MOTION_DOT":0.00348586,"MEAN_MOTION_DDOT":0},{"OBJECT_NAME":"STARLINK-11710 [DTC]","OBJECT_ID":"2025-119M","EPOCH":"2025-12-01T14:08:15.939168","MEAN_MOTION":15.71057397,"ECCENTRICITY":0.0001161,"INCLINATION":42.9965,"RA_OF_ASC_NODE":80.6422,"ARG_OF_PERICENTER":198.9189,"MEAN_ANOMALY":161.1635,"EPHEMERIS_TYPE":0,"CLASSIFICATION_TYPE":"U","NORAD_CAT_ID":64244,"ELEMENT_SET_NO":999,"REV_AT_EPOCH":2981,"BSTAR":0.0019063,"MEAN_MOTION_DOT":0.00254096,"MEAN_MOTION_DDOT":0},{"OBJECT_NAME":"STARLINK-11704 [DTC]","OBJECT_ID":"2025-119N","EPOCH":"2025-12-01T08:47:43.029600","MEAN_MOTION":15.70849432,"ECCENTRICITY":0.0002498,"INCLINATION":43.0015,"RA_OF_ASC_NODE":81.5367,"ARG_OF_PERICENTER":285.4862,"MEAN_ANOMALY":74.573,"EPHEMERIS_TYPE":0,"CLASSIFICATION_TYPE":"U","NORAD_CAT_ID":64245,"ELEMENT_SET_NO":999,"REV_AT_EPOCH":2978,"BSTAR":0.0019689,"MEAN_MOTION_DOT":0.00260378,"MEAN_MOTION_DDOT":0}]
