STARLINK-34330          
1 64227U 25117AA  25335.76484980  .00021719  00000+0  74323-3 0  9992
2 64227  53.1593 134.4046 0001058  87.0592 273.0530 15.30202288 29536
STARLINK-34167          
1 64228U 25117AB  25335.73846817  .00023137  00000+0  79065-3 0  9995
2 64228  53.1573 134.2369 0001040  80.8299 279.2819 15.30209092 29568
STARLINK-34241          
1 64229U 25117AC  25335.72700529  .00026461  00000+0  90249-3 0  9994
2 64229  53.1580 134.9433 0001151  74.9824 285.1304 15.30195359 29551
STARLINK-11686 [DTC]    
1 64233U 25119A   25335.59529418  .00282264  00000+0  21227-2 0  9996
2 64233  42.9985  80.6975 0000599 185.8417 174.2444 15.70913866 29811
STARLINK-11682 [DTC]    
1 64234U 25119B   25335.35598165  .00278641  00000+0  21013-2 0  9993
2 64234  42.9986  82.3511 0003875 288.0899  71.9546 15.70855236 29775
STARLINK-11675 [DTC]    
1 64235U 25119C   25335.57845664  .00233251  00000+0  17671-2 0  9990
2 64235  43.0003  80.5618 0000846 213.0232 147.0583 15.70888876 29817
STARLINK-11691 [DTC]    
1 64236U 25119D   25335.62611424  .00245552  00000+0  18566-2 0  9993
2 64236  42.9980  80.0492 0002910 307.0066  53.0535 15.70897252 29820
STARLINK-11670 [DTC]    
1 64237U 25119E   25335.59438410  .00392869  00000+0  28849-2 0  9991
2 64237  43.0013  80.6894 0002770 253.6127 106.4436 15.71151210 29810
STARLINK-11708 [DTC]    
1 64238U 25119F   25335.59969411  .00223689  00000+0  16973-2 0  9990
2 64238  43.0027  80.7317 0001770 265.6756  94.3909 15.70880836 29819
STARLINK-11683 [DTC]    
1 64239U 25119G   25335.36116269  .00278098  00000+0  20989-2 0  9997
2 64239  42.9985  81.4959 0003267 293.8636  66.1889 15.70840122 29788
STARLINK-11684 [DTC]    
1 64240U 25119H   25335.58376550  .00227250  00000+0  17243-2 0  9997
2 64240  42.9990  80.6015 0001293 255.7433 104.3291 15.70870377 29810
STARLINK-11689 [DTC]    
1 64241U 25119J   25335.57314533  .00139031  00000+0  10668-2 0  9993
2 64241  43.0032  80.5187 0002588 267.0827  92.9745 15.70887422 29815
STARLINK-11690 [DTC]    
1 64242U 25119K   25335.63142111  .00241971  00000+0  18295-2 0  9993
2 64242  43.0004  80.0910 0002339 298.2556  61.8076 15.70908600 29828
STARLINK-11694 [DTC]    
1 64243U 25119L   25335.28708959  .00348586  00000+0  25868-2 0  9997
2 64243  42.9998  82.6888 0001979 245.1810 114.8852 15.71033141 29768
STARLINK-11710 [DTC]    
1 64244U 25119M   25335.58907337  .00254096  00000+0  19063-2 0  9994
2 64244  42.9965  80.6422 0001161 198.9189 161.1635 15.71057397 29811
STARLINK-11704 [DTC]    
1 64245U 25119N   25335.36647026  .00260378  00000+0  19689-2 0  9991
2 64245  43.0015  81.5367 0002498 285.4862  74.5730 15.70849432 29789
